STARLINK-5910           
1 56000U 23042Q   25088.80193252  .00004352  00000+0  33712-3 0  9997
2 56000  43.0006 129.8425 0000653 323.2754  36.8043 15.02527282111031
STARLINK-5944           
1 56001U 23042R   25088.81078862 -.00002916  00000+0 -20093-3 0  9992
2 56001  43.0031 129.9107 0001313 270.6934  89.3758 15.02524302111033
STARLINK-5799           
1 56002U 23042S   25088.80523459  .00000929  00000+0  83797-4 0  9990
2 56002  43.0034 129.8702 0001483 277.6664  82.4009 15.02540683111035
STARLINK-5789           
1 56003U 23042T   25089.14983855  .00000849  00000+0  77909-4 0  9998
2 56003  43.0030 128.1547 0001232 262.5968  97.4734 15.02534232111420
STARLINK-5787           
1 56004U 23042U   25088.79857862  .00000784  00000+0  73094-4 0  9996
2 56004  43.0030 129.8232 0001290 273.1378  86.9316 15.02537060111035
STARLINK-5801           
1 56005U 23042V   25088.80855592  .00006534  00000+0  49806-3 0  9999
2 56005  43.0006 129.8981 0001318 273.2748  86.7944 15.02556578111033
STARLINK-5794           
1 56006U 23042W   25088.59472003  .00003396  00000+0  26641-3 0  9993
2 56006  43.0021 130.8685 0001216 253.7834 106.2874 15.02531589111002
STARLINK-5806           
1 56007U 23042X   25088.79746910  .00004220  00000+0  32726-3 0  9995
2 56007  43.0021 129.8133 0001559 277.3782  82.6883 15.02541988111037
STARLINK-5803           
1 56008U 23042Y   25088.83005981  .00001696  00000+0  14354-3 0  9998
2 56008  43.0027 130.0447 0001247 271.8675  88.2024 15.01727475111024
STARLINK-5964           
1 56009U 23042Z   25088.79525336  .00001827  00000+0  15022-3 0  9994
2 56009  43.0035 129.7931 0001299 272.9988  87.0706 15.02544547111036
STARLINK-5968           
1 56010U 23042AA  25088.79080206  .00000860  00000+0  78738-4 0  9998
2 56010  43.0022 129.7610 0001209 264.2735  95.7969 15.02546577111035
STARLINK-5936           
1 56011U 23042AB  25088.78896237  .00000479  00000+0  50506-4 0  9996
2 56011  43.0037 117.5941 0001278 261.0884  98.9814 15.02538018111170
STARLINK-5940           
1 56012U 23042AC  25088.79451196  .00001430  00000+0  12087-3 0  9998
2 56012  43.0029 117.6389 0001219 270.3962  89.6741 15.02538420111177
STARLINK-5941           
1 56013U 23042AD  25088.38860685 -.00002960  00000+0 -20401-3 0  9991
2 56013  43.0035 131.8998 0001157 268.7021  91.3689 15.02553862110972
STARLINK-5942           
1 56014U 23042AE  25089.12024353  .00001666  00000+0  13840-3 0  9998
2 56014  43.0024 115.7827 0001263 268.8290  91.2408 15.02536205111566
STARLINK-5939           
1 56015U 23042AF  25088.79118357  .00002193  00000+0  17734-3 0  9991
2 56015  43.0034 117.6109 0001255 267.1211  92.9487 15.02537977111177
STARLINK-5943           
1 56016U 23042AG  25088.77120315  .00001501  00000+0  12617-3 0  9994
2 56016  43.0029 117.4598 0001312 280.6048  79.4646 15.02534822111177
STARLINK-5934           
1 56017U 23042AH  25088.44991481  .00001444  00000+0  12196-3 0  9997
2 56017  43.0030 119.3501 0001234 270.2245  89.8456 15.02534820111129
STARLINK-5945           
1 56018U 23042AJ  25088.77230784  .00002303  00000+0  18543-3 0  9993
2 56018  43.0035 117.4694 0001330 266.1188  93.9502 15.02543462111179
STARLINK-5949           
1 56019U 23042AK  25089.11802064  .00001429  00000+0  12084-3 0  9991
2 56019  43.0026 115.7649 0001273 271.3789  88.6908 15.02538235111568
STARLINK-5912           
1 56020U 23042AL  25088.77564943  .00005375  00000+0  41262-3 0  9999
2 56020  43.0013 117.4931 0001331 263.8343  96.2348 15.02538722111177
STARLINK-5907           
1 56021U 23042AM  25089.11136612  .00000632  00000+0  61844-4 0  9997
2 56021  43.0025 115.7151 0000966 268.1807  91.8925 15.02531887111562
STARLINK-5783           
1 56022U 23042AN  25088.76233756 -.00000751  00000+0 -40510-4 0  9996
2 56022  43.0040 117.3924 0001642 269.4820  90.5834 15.02522864111174
STARLINK-5771           
1 56023U 23042AP  25088.76787310  .00000735  00000+0  69472-4 0  9995
2 56023  43.0017 117.4347 0001252 269.1702  90.8997 15.02538720111173
STARLINK-5772           
1 56024U 23042AQ  25089.08472708  .00001244  00000+0  10716-3 0  9996
2 56024  43.0025 115.5136 0001323 276.3786  83.6905 15.02533255111569
STARLINK-5766           
1 56025U 23042AR  25088.79562292  .00001028  00000+0  91127-4 0  9998
2 56025  43.0016 117.6360 0001157 270.5097  89.5613 15.02535969111170
STARLINK-5770           
1 56026U 23042AS  25088.76121387  .00007843  00000+0  59492-3 0  9991
2 56026  43.0010 117.3827 0001270 274.3984  85.6713 15.02543064111176
STARLINK-5777           
1 56027U 23042AT  25088.76454495  .00004487  00000+0  34697-3 0  9992
2 56027  43.0020 117.4105 0001495 266.6118  93.4553 15.02545375111176
STARLINK-5779           
1 56028U 23042AU  25089.08030109  .00002107  00000+0  17106-3 0  9994
2 56028  43.0034 115.4746 0001130 261.0814  98.9900 15.02526250111569
STARLINK-5774           
1 56029U 23042AV  25088.75788525 -.00000264  00000+0 -44659-5 0  9999
2 56029  43.0048 117.3541 0001873 264.7835  95.2793 15.02524222111170
STARLINK-5781           
1 56030U 23042AW  25088.81104515  .00001150  00000+0  10016-3 0  9990
2 56030  43.0023 116.8994 0001104 263.3810  96.6906 15.02535904111187
STARLINK-5785           
1 56031U 23042AX  25088.55178462 -.00000378  00000+0 -12925-4 0  9999
2 56031  43.0038 118.3937 0001451 273.5388  86.5289 15.02530836111143
STARLINK-5786           
1 56032U 23042AY  25088.80216252  .00001011  00000+0  89930-4 0  9991
2 56032  43.0040 116.8286 0001279 269.3788  90.6908 15.02535616111181
STARLINK-5782           
1 56034U 23042BA  25088.53514298 -.00001102  00000+0 -66473-4 0  9994
2 56034  43.0034 118.2643 0001355 264.7611  95.3076 15.02541117111145
STARLINK-5792           
1 56035U 23042BB  25089.07473687  .00001870  00000+0  15350-3 0  9998
2 56035  43.0030 115.4350 0001124 266.2482  93.8232 15.02534155111560
STARLINK-5790           
1 56036U 23042BC  25089.13677701  .00001333  00000+0  11377-3 0  9998
2 56036  43.0025 115.0382 0001173 267.2048  92.8660 15.02532432111570
STARLINK-5758           
1 56037U 23042BD  25088.75924198  .00001767  00000+0  14584-3 0  9995
2 56037  43.0030 104.3086 0001171 268.8200  91.2508 15.02540963111329
STARLINK-5793           
1 56038U 23042BE  25088.79884096  .00001135  00000+0  99062-4 0  9996
2 56038  43.0039 116.8013 0001393 256.4734 103.5953 15.02538741111184
STARLINK-5795           
1 56039U 23042BF  25089.08718752  .00001851  00000+0  15205-3 0  9996
2 56039  43.0027 102.4708 0001285 272.1932  87.8763 15.02537127111718
STARLINK-5798           
1 56040U 23042BG  25088.75258646 -.00000106  00000+0  71953-5 0  9999
2 56040  43.0036 104.2580 0001308 265.5585  94.5108 15.02535795111328
STARLINK-5800           
1 56041U 23042BH  25088.88331613  .00000977  00000+0  87362-4 0  9995
2 56041  43.0031 103.5187 0001281 267.6969  92.3727 15.02539475111342
STARLINK-6109           
1 56094U 23046B   25089.09780626  .00000724  00000+0  68693-4 0  9999
2 56094  43.0008 231.6064 0001089 277.4748  82.5971 15.02535831110760
STARLINK-6090           
1 56095U 23046C   25088.83855824  .00003757  00000+0  29311-3 0  9996
2 56095  43.0019 233.1012 0000962 262.3956  97.6778 15.02521815110181
STARLINK-6089           
1 56096U 23046D   25088.89615234  .00004327  00000+0  33518-3 0  9990
2 56096  43.0028 232.6708 0001502 273.9530  86.1141 15.02535558110192
STARLINK-6077           
1 56097U 23046E   25089.22851413 -.00005031  00000+0 -35821-3 0  9994
2 56097  43.0027 178.8080 0000429 265.3891  94.6902 15.02477543111388
STARLINK-6088           
1 56098U 23046F   25089.10112658 -.00005349  00000+0 -38088-3 0  9993
2 56098  43.0036 231.6327 0002073 275.6432  84.4174 15.02560438110768
STARLINK-6093           
1 56099U 23046G   25089.09004705 -.00001119  00000+0 -67814-4 0  9996
2 56099  43.0001 231.5424 0000245  82.1536 277.9334 15.02517797110760
STARLINK-6076           
1 56100U 23046H   25089.08559472  .00001242  00000+0  10698-3 0  9996
2 56100  42.9993 231.5136 0001496 265.1537  94.9135 15.02538756110768
STARLINK-6095           
1 56101U 23046J   25089.08448255 -.00005592  00000+0 -39927-3 0  9993
2 56101  43.0001 231.5009 0001032 279.5263  80.5462 15.02531922110763
STARLINK-6075           
1 56102U 23046K   25089.07893376 -.00000801  00000+0 -44251-4 0  9996
2 56102  42.9985 231.4567 0000543 317.0377  43.0422 15.02532507110761
STARLINK-6096           
1 56103U 23046L   25089.08115588  .00000894  00000+0  81217-4 0  9993
2 56103  43.0006 231.4776 0001481 260.5841  99.4834 15.02536641110765
STARLINK-6062           
1 56104U 23046M   25089.08226538  .00001899  00000+0  15558-3 0  9992
2 56104  43.0015 231.4863 0001258 288.7032  71.3673 15.02535900110766
STARLINK-6066           
1 56105U 23046N   25088.86951745  .00000570  00000+0  57233-4 0  9995
2 56105  43.0005 232.4704 0001109 267.0947  92.9768 15.02532764110197
STARLINK-6030           
1 56107U 23046Q   25088.86395767  .00002718  00000+0  21621-3 0  9990
2 56107  43.0019 232.4261 0001133 274.0255  86.0458 15.02538920110199
STARLINK-6081           
1 56108U 23046R   25088.67895446  .00003522  00000+0  27559-3 0  9999
2 56108  43.0030 233.6157 0001683 275.2550  84.8100 15.02543055110163
STARLINK-6083           
1 56109U 23046S   25088.86732404 -.00000966  00000+0 -56492-4 0  9995
2 56109  43.0033 232.4534 0001815 285.1959  74.8683 15.02508166110735
STARLINK-6082           
1 56110U 23046T   25089.07228627  .00001686  00000+0  13990-3 0  9991
2 56110  43.0080 231.4029 0002392  37.6090 322.4919 15.02535742110761
STARLINK-6084           
1 56111U 23046U   25089.11878077  .00006440  00000+0  49158-3 0  9995
2 56111  43.0021 230.9021 0001212 274.9211  85.1493 15.02518674110770
STARLINK-6080           
1 56112U 23046V   25088.85841779  .00003471  00000+0  27190-3 0  9998
2 56112  43.0005 232.3870 0001274 258.5543 101.5156 15.02534208110191
STARLINK-6113           
